[{"OBJECT_NAME":"OBJECT D","OBJECT_ID":"2025-180D","EPOCH":"2026-03-07T14:42:33.383232","MEAN_MOTION":15.14421951,"ECCENTRICITY":0.00131383,"INCLINATION":97.5098,"RA_OF_ASC_NODE":194.941,"ARG_OF_PERICENTER":314.6829,"MEAN_ANOMALY":45.3332,"EPHEMERIS_TYPE":0,"CLASSIFICATION_TYPE":"U","NORAD_CAT_ID":65262,"ELEMENT_SET_NO":999,"REV_AT_EPOCH":3028,"BSTAR":0.00044965302,"MEAN_MOTION_DOT":8.214e-5,"MEAN_MOTION_DDOT":0},{"OBJECT_NAME":"FORESAIL-1 PRIME","OBJECT_ID":"2025-276DS","EPOCH":"2026-03-09T22:28:09.304320","MEAN_MOTION":15.17695918,"ECCENTRICITY":0.00039797,"INCLINATION":97.4274,"RA_OF_ASC_NODE":144.0627,"ARG_OF_PERICENTER":95.0578,"MEAN_ANOMALY":265.111,"EPHEMERIS_TYPE":0,"CLASSIFICATION_TYPE":"U","NORAD_CAT_ID":66778,"ELEMENT_SET_NO":999,"REV_AT_EPOCH":1534,"BSTAR":0.00034805392,"MEAN_MOTION_DOT":6.952e-5,"MEAN_MOTION_DDOT":0}]
